{"type": "FeatureCollection", "features": [ {"type": "Feature", "properties": {"norad_id": 66615, "name": "STARLINK-35988", "group": "last-30-days", "lat": -2.9521353602592377, "lon": 133.78557003749592, "alt_km": 443.8792458012831, "timestamp": "2025-12-22T08:58:19.045369+00:00", "meta": {"OBJECT_NAME": "STARLINK-35988", "OBJECT_ID": "2025-270AD", "EPOCH": "2025-12-22T02:46:02.178336", "MEAN_MOTION": 15.40720098, "ECCENTRICITY": 4.62e-05, "INCLINATION": 42.9959, "RA_OF_ASC_NODE": 138.4488, "ARG_OF_PERICENTER": 300.2362, "MEAN_ANOMALY": 59.8448, "EPHEMERIS_TYPE": 0, "CLASSIFICATION_TYPE": "U", "NORAD_CAT_ID": 66615, "ELEMENT_SET_NO": 999, "REV_AT_EPOCH": 563, "BSTAR": 0.0010765, "MEAN_MOTION_DOT": 0.00044958, "MEAN_MOTION_DDOT": 0}, "tle": {"line1": "1 66615U 25270AD  25356.11530299  .00044958  00000+0  10765-2 0  9991", "line2": "2 66615  42.9959 138.4488 0000462 300.2362  59.8448 15.40720098  5636"}}, "geometry": {"type": "Point", "coordinates": [133.78557003749592, -2.9521353602592377]}}, {"type": "Feature", "properties": {"norad_id": 66616, "name": "STARLINK-35391", "group": "last-30-days", "lat": 42.76726027252382, "lon": -126.2998983731563, "alt_km": 438.13707595836513, "timestamp": "2025-12-22T08:58:19.045379+00:00", "meta": {"OBJECT_NAME": "STARLINK-35391", "OBJECT_ID": "2025-270AE", "EPOCH": "2025-12-22T00:00:00.998784", "MEAN_MOTION": 15.40663019, "ECCENTRICITY": 0.0001246, "INCLINATION": 43.0002, "RA_OF_ASC_NODE": 138.8723, "ARG_OF_PERICENTER": 281.4949, "MEAN_ANOMALY": 257.7879, "EPHEMERIS_TYPE": 0, "CLASSIFICATION_TYPE": "U", "NORAD_CAT_ID": 66616, "ELEMENT_SET_NO": 999, "REV_AT_EPOCH": 599, "BSTAR": 0.00066448, "MEAN_MOTION_DOT": 0.00027519, "MEAN_MOTION_DDOT": 0}, "tle": {"line1": "1 66616U 25270AE  25356.00001156  .00027519  00000+0  66448-3 0  9999", "line2": "2 66616  43.0002 138.8723 0001246 281.4949 257.7879 15.40663019  5991"}}, "geometry": {"type": "Point", "coordinates": [-126.2998983731563, 42.76726027252382]}}, {"type": "Feature", "properties": {"norad_id": 66617, "name": "STARLINK-35940", "group": "last-30-days", "lat": -36.06050095981016, "lon": 108.59993828980815, "alt_km": 451.85538714406357, "timestamp": "2025-12-22T08:58:19.045389+00:00", "meta": {"OBJECT_NAME": "STARLINK-35940", "OBJECT_ID": "2025-271A", "EPOCH": "2025-12-22T02:56:43.982592", "MEAN_MOTION": 15.39678022, "ECCENTRICITY": 0.0001392, "INCLINATION": 53.1598, "RA_OF_ASC_NODE": 142.8708, "ARG_OF_PERICENTER": 85.344, "MEAN_ANOMALY": 274.7724, "EPHEMERIS_TYPE": 0, "CLASSIFICATION_TYPE": "U", "NORAD_CAT_ID": 66617, "ELEMENT_SET_NO": 999, "REV_AT_EPOCH": 565, "BSTAR": 0.00079141, "MEAN_MOTION_DOT": 0.00031447, "MEAN_MOTION_DDOT": 0}, "tle": {"line1": "1 66617U 25271A   25356.12273128  .00031447  00000+0  79141-3 0  9993", "line2": "2 66617  53.1598 142.8708 0001392  85.3440 274.7724 15.39678022  5650"}}, "geometry": {"type": "Point", "coordinates": [108.59993828980815, -36.06050095981016]}}, {"type": "Feature", "properties": {"norad_id": 66618, "name": "STARLINK-35970", "group": "last-30-days", "lat": -37.76918277712117, "lon": -3.357943576507841, "alt_km": 434.8981870107309, "timestamp": "2025-12-22T08:58:19.045402+00:00", "meta": {"OBJECT_NAME": "STARLINK-35970", "OBJECT_ID": "2025-271B", "EPOCH": "2025-12-22T04:00:01.998720", "MEAN_MOTION": 15.45502253, "ECCENTRICITY": 0.0001214, "INCLINATION": 53.1608, "RA_OF_ASC_NODE": 142.1147, "ARG_OF_PERICENTER": 67.4273, "MEAN_ANOMALY": 89.291, "EPHEMERIS_TYPE": 0, "CLASSIFICATION_TYPE": "U", "NORAD_CAT_ID": 66618, "ELEMENT_SET_NO": 999, "REV_AT_EPOCH": 575, "BSTAR": 0.001155, "MEAN_MOTION_DOT": 0.00056265, "MEAN_MOTION_DDOT": 0}, "tle": {"line1": "1 66618U 25271B   25356.16668980  .00056265  00000+0  11550-2 0  9996", "line2": "2 66618  53.1608 142.1147 0001214  67.4273  89.2910 15.45502253  5757"}}, "geometry": {"type": "Point", "coordinates": [-3.357943576507841, -37.76918277712117]}}, {"type": "Feature", "properties": {"norad_id": 66619, "name": "STARLINK-35951", "group": "last-30-days", "lat": -0.7446471515700205, "lon": -38.20914959583621, "alt_km": 439.4737751428511, "timestamp": "2025-12-22T08:58:19.045414+00:00", "meta": {"OBJECT_NAME": "STARLINK-35951", "OBJECT_ID": "2025-271C", "EPOCH": "2025-12-22T04:00:01.998720", "MEAN_MOTION": 15.43572701, "ECCENTRICITY": 0.0001245, "INCLINATION": 53.161, "RA_OF_ASC_NODE": 142.214, "ARG_OF_PERICENTER": 70.7815, "MEAN_ANOMALY": 38.6769, "EPHEMERIS_TYPE": 0, "CLASSIFICATION_TYPE": "U", "NORAD_CAT_ID": 66619, "ELEMENT_SET_NO": 999, "REV_AT_EPOCH": 575, "BSTAR": -0.050565, "MEAN_MOTION_DOT": -0.02051067, "MEAN_MOTION_DDOT": 0}, "tle": {"line1": "1 66619U 25271C   25356.16668980 -.02051067  00000+0 -50565-1 0  9994", "line2": "2 66619  53.1610 142.2140 0001245  70.7815  38.6769 15.43572701  5751"}}, "geometry": {"type": "Point", "coordinates": [-38.20914959583621, -0.7446471515700205]}}, {"type": "Feature", "properties": {"norad_id": 66620, "name": "STARLINK-35936", "group": "last-30-days", "lat": 13.832251960603374, "lon": -49.37008907435373, "alt_km": 435.3169356175631, "timestamp": "2025-12-22T08:58:19.045425+00:00", "meta": {"OBJECT_NAME": "STARLINK-35936", "OBJECT_ID": "2025-271D", "EPOCH": "2025-12-19T22:47:58.481952", "MEAN_MOTION": 15.45204148, "ECCENTRICITY": 0.0001217, "INCLINATION": 53.1593, "RA_OF_ASC_NODE": 152.7719, "ARG_OF_PERICENTER": 60.4895, "MEAN_ANOMALY": 299.6234, "EPHEMERIS_TYPE": 0, "CLASSIFICATION_TYPE": "U", "NORAD_CAT_ID": 66620, "ELEMENT_SET_NO": 999, "REV_AT_EPOCH": 532, "BSTAR": -0.0084825, "MEAN_MOTION_DOT": -0.00389636, "MEAN_MOTION_DDOT": 0}, "tle": {"line1": "1 66620U 25271D   25353.94998243 -.00389636  00000+0 -84825-2 0  9998", "line2": "2 66620  53.1593 152.7719 0001217  60.4895 299.6234 15.45204148  5322"}}, "geometry": {"type": "Point", "coordinates": [-49.37008907435373, 13.832251960603374]}}, {"type": "Feature", "properties": {"norad_id": 66621, "name": "STARLINK-35847", "group": "last-30-days", "lat": -42.69404785384993, "lon": 4.8747541312760605, "alt_km": 434.25535937182303, "timestamp": "2025-12-22T08:58:19.045436+00:00", "meta": {"OBJECT_NAME": "STARLINK-35847", "OBJECT_ID": "2025-271E", "EPOCH": "2025-12-19T22:32:40.837056", "MEAN_MOTION": 15.4673989, "ECCENTRICITY": 5.74e-05, "INCLINATION": 53.1594, "RA_OF_ASC_NODE": 152.6978, "ARG_OF_PERICENTER": 182.8412, "MEAN_ANOMALY": 177.2593, "EPHEMERIS_TYPE": 0, "CLASSIFICATION_TYPE": "U", "NORAD_CAT_ID": 66621, "ELEMENT_SET_NO": 999, "REV_AT_EPOCH": 532, "BSTAR": -0.0053109, "MEAN_MOTION_DOT": -0.00261578, "MEAN_MOTION_DDOT": 0}, "tle": {"line1": "1 66621U 25271E   25353.93936154 -.00261578  00000+0 -53109-2 0  9996", "line2": "2 66621  53.1594 152.6978 0000574 182.8412 177.2593 15.46739890  5326"}}, "geometry": {"type": "Point", "coordinates": [4.8747541312760605, -42.69404785384993]}}, {"type": "Feature", "properties": {"norad_id": 66622, "name": "STARLINK-35950", "group": "last-30-days", "lat": 41.358946580323455, "lon": -177.21550449843943, "alt_km": 441.2083170447013, "timestamp": "2025-12-22T08:58:19.045448+00:00", "meta": {"OBJECT_NAME": "STARLINK-35950", "OBJECT_ID": "2025-271F", "EPOCH": "2025-12-22T00:00:00.998784", "MEAN_MOTION": 15.39697473, "ECCENTRICITY": 0.0001039, "INCLINATION": 53.1594, "RA_OF_ASC_NODE": 143.2448, "ARG_OF_PERICENTER": 74.0942, "MEAN_ANOMALY": 68.4893, "EPHEMERIS_TYPE": 0, "CLASSIFICATION_TYPE": "U", "NORAD_CAT_ID": 66622, "ELEMENT_SET_NO": 999, "REV_AT_EPOCH": 573, "BSTAR": -0.0035089, "MEAN_MOTION_DOT": -0.00138582, "MEAN_MOTION_DDOT": 0}, "tle": {"line1": "1 66622U 25271F   25356.00001156 -.00138582  00000+0 -35089-2 0  9998", "line2": "2 66622  53.1594 143.2448 0001039  74.0942  68.4893 15.39697473  5733"}}, "geometry": {"type": "Point", "coordinates": [-177.21550449843943, 41.358946580323455]}}, {"type": "Feature", "properties": {"norad_id": 66623, "name": "STARLINK-35920", "group": "last-30-days", "lat": 3.29111866485724, "lon": 144.0533875794147, "alt_km": 447.55325671796436, "timestamp": "2025-12-22T08:58:19.045459+00:00", "meta": {"OBJECT_NAME": "STARLINK-35920", "OBJECT_ID": "2025-271G", "EPOCH": "2025-12-22T02:43:21.133056", "MEAN_MOTION": 15.39651421, "ECCENTRICITY": 6.9e-05, "INCLINATION": 53.1619, "RA_OF_ASC_NODE": 142.81, "ARG_OF_PERICENTER": 95.3081, "MEAN_ANOMALY": 264.8003, "EPHEMERIS_TYPE": 0, "CLASSIFICATION_TYPE": "U", "NORAD_CAT_ID": 66623, "ELEMENT_SET_NO": 999, "REV_AT_EPOCH": 565, "BSTAR": 0.0010571, "MEAN_MOTION_DOT": 0.00042163, "MEAN_MOTION_DDOT": 0}, "tle": {"line1": "1 66623U 25271G   25356.11343904  .00042163  00000+0  10571-2 0  9997", "line2": "2 66623  53.1619 142.8100 0000690  95.3081 264.8003 15.39651421  5653"}}, "geometry": {"type": "Point", "coordinates": [144.0533875794147, 3.29111866485724]}}, {"type": "Feature", "properties": {"norad_id": 66624, "name": "STARLINK-35927", "group": "last-30-days", "lat": -6.086362751663301, "lon": -34.19770484345307, "alt_km": 434.2092186382597, "timestamp": "2025-12-22T08:58:19.045469+00:00", "meta": {"OBJECT_NAME": "STARLINK-35927", "OBJECT_ID": "2025-271H", "EPOCH": "2025-12-19T22:44:25.582848", "MEAN_MOTION": 15.46532201, "ECCENTRICITY": 8.49e-05, "INCLINATION": 53.159, "RA_OF_ASC_NODE": 152.7553, "ARG_OF_PERICENTER": 106.2501, "MEAN_ANOMALY": 253.86, "EPHEMERIS_TYPE": 0, "CLASSIFICATION_TYPE": "U", "NORAD_CAT_ID": 66624, "ELEMENT_SET_NO": 999, "REV_AT_EPOCH": 532, "BSTAR": -0.0084107, "MEAN_MOTION_DOT": -0.00403682, "MEAN_MOTION_DDOT": 0}, "tle": {"line1": "1 66624U 25271H   25353.94751832 -.00403682  00000+0 -84107-2 0  9994", "line2": "2 66624  53.1590 152.7553 0000849 106.2501 253.8600 15.46532201  5326"}}, "geometry": {"type": "Point", "coordinates": [-34.19770484345307, -6.086362751663301]}}]}